start=new Date('2022-04-09T00:00:00.000Z').valueOf();
sats=[{"TLE_LINE1":"1 47568U 21009W   22098.91223141  .00001190  00000-0  98787-4 0  9990","MEAN_ANOMALY":"312.3169","DECAY_DATE":null,"GP_ID":"200781911","LAUNCH_DATE":"2021-02-04","REV_AT_EPOCH":"6486","TLE_LINE2":"2 47568  53.0556 344.6289 0001677  47.7962 312.3169 15.06405714 64860","CLASSIFICATION_TYPE":"U","ELEMENT_SET_NO":"999","EPHEMERIS_TYPE":"0","REF_FRAME":"TEME","OBJECT_NAME":"STARLINK-1967","EPOCH":"2022-04-08T21:53:36.793824","ECCENTRICITY":"0.00016770","FILE":"3393990","COUNTRY_CODE":"US","CENTER_NAME":"EARTH","ARG_OF_PERICENTER":"47.7962","MEAN_ELEMENT_THEORY":"SGP4","PERIOD":"95.592","OBJECT_ID":"2021-009W","PERIAPSIS":"546.035","MEAN_MOTION":"15.06405714","RA_OF_ASC_NODE":"344.6289","TIME_SYSTEM":"UTC","NORAD_CAT_ID":"47568","MEAN_MOTION_DOT":"0.00001190","INCLINATION":"53.0556","BSTAR":"0.00009878700000","APOAPSIS":"548.357","MEAN_MOTION_DDOT":"0.0000000000000","SITE":"AFETR","OBJECT_TYPE":"PAYLOAD","SEMIMAJOR_AXIS":"6925.331","RCS_SIZE":"LARGE"},{"MEAN_ANOMALY":"337.9792","TLE_LINE1":"1 47569U 21009X   22098.74881855  .00116801  00000-0  20723-2 0  9993","CLASSIFICATION_TYPE":"U","REV_AT_EPOCH":"6575","TLE_LINE2":"2 47569  53.0610 280.9911 0002756  22.1335 337.9792 15.49367839 65752","LAUNCH_DATE":"2021-02-04","DECAY_DATE":null,"GP_ID":"200781662","OBJECT_NAME":"STARLINK-1968","REF_FRAME":"TEME","EPHEMERIS_TYPE":"0","ELEMENT_SET_NO":"999","MEAN_ELEMENT_THEORY":"SGP4","PERIOD":"92.941","CENTER_NAME":"EARTH","ARG_OF_PERICENTER":"22.1335","FILE":"3393990","COUNTRY_CODE":"US","EPOCH":"2022-04-08T17:58:17.922720","ECCENTRICITY":"0.00027560","PERIAPSIS":"416.703","OBJECT_ID":"2021-009X","MEAN_MOTION_DOT":"0.00116801","INCLINATION":"53.0610","NORAD_CAT_ID":"47569","TIME_SYSTEM":"UTC","RA_OF_ASC_NODE":"280.9911","MEAN_MOTION":"15.49367839","SITE":"AFETR","MEAN_MOTION_DDOT":"0.0000000000000","APOAPSIS":"420.449","BSTAR":"0.00207230000000","RCS_SIZE":"LARGE","OBJECT_TYPE":"PAYLOAD","SEMIMAJOR_AXIS":"6796.711"},{"BSTAR":"0.00005323400000","APOAPSIS":"548.295","MEAN_MOTION_DDOT":"0.0000000000000","SITE":"AFETR","SEMIMAJOR_AXIS":"6925.362","OBJECT_TYPE":"PAYLOAD","RCS_SIZE":"LARGE","OBJECT_ID":"2021-009Y","PERIAPSIS":"546.159","MEAN_MOTION":"15.06395611","RA_OF_ASC_NODE":"304.9546","TIME_SYSTEM":"UTC","NORAD_CAT_ID":"47570","INCLINATION":"53.0550","MEAN_MOTION_DOT":"0.00000511","ELEMENT_SET_NO":"999","EPHEMERIS_TYPE":"0","REF_FRAME":"TEME","OBJECT_NAME":"STARLINK-1969","ECCENTRICITY":"0.00015420","EPOCH":"2022-04-08T20:07:28.744032","FILE":"3393990","COUNTRY_CODE":"US","ARG_OF_PERICENTER":"66.5593","CENTER_NAME":"EARTH","PERIOD":"95.592","MEAN_ELEMENT_THEORY":"SGP4","TLE_LINE1":"1 47570U 21009Y   22098.83852713  .00000511  00000-0  53234-4 0  9991","MEAN_ANOMALY":"293.5558","GP_ID":"200780410","DECAY_DATE":null,"LAUNCH_DATE":"2021-02-04","TLE_LINE2":"2 47570  53.0550 304.9546 0001542  66.5593 293.5558 15.06395611 65410","REV_AT_EPOCH":"6541","CLASSIFICATION_TYPE":"U"},{"INCLINATION":"53.0548","MEAN_MOTION_DOT":"0.00001007","NORAD_CAT_ID":"47571","TIME_SYSTEM":"UTC","RA_OF_ASC_NODE":"314.9175","MEAN_MOTION":"15.06406742","PERIAPSIS":"546.214","OBJECT_ID":"2021-009Z","RCS_SIZE":"LARGE","SEMIMAJOR_AXIS":"6925.328","OBJECT_TYPE":"PAYLOAD","SITE":"AFETR","MEAN_MOTION_DDOT":"0.0000000000000","APOAPSIS":"548.171","BSTAR":"0.00008645200000","CLASSIFICATION_TYPE":"U","REV_AT_EPOCH":"6527","TLE_LINE2":"2 47571  53.0548 314.9175 0001413  68.8208 291.2932 15.06406742 65275","LAUNCH_DATE":"2021-02-04","GP_ID":"200781160","DECAY_DATE":null,"MEAN_ANOMALY":"291.2932","TLE_LINE1":"1 47571U 21009Z   22098.84865070  .00001007  00000-0  86452-4 0  9992","PERIOD":"95.592","MEAN_ELEMENT_THEORY":"SGP4","CENTER_NAME":"EARTH","ARG_OF_PERICENTER":"68.8208","FILE":"3393990","COUNTRY_CODE":"US","ECCENTRICITY":"0.00014130","EPOCH":"2022-04-08T20:22:03.420480","OBJECT_NAME":"STARLINK-1970","REF_FRAME":"TEME","EPHEMERIS_TYPE":"0","ELEMENT_SET_NO":"999"},{"BSTAR":"0.00019867000000","APOAPSIS":"548.279","MEAN_MOTION_DDOT":"0.0000000000000","SITE":"AFETR","OBJECT_TYPE":"PAYLOAD","SEMIMAJOR_AXIS":"6925.308","RCS_SIZE":"LARGE","OBJECT_ID":"2021-009AA","PERIAPSIS":"546.068","MEAN_MOTION":"15.06413073","RA_OF_ASC_NODE":"314.7087","TIME_SYSTEM":"UTC","NORAD_CAT_ID":"47572","MEAN_MOTION_DOT":"0.00002680","INCLINATION":"53.0555","ELEMENT_SET_NO":"999","EPHEMERIS_TYPE":"0","REF_FRAME":"TEME","OBJECT_NAME":"STARLINK-1971","EPOCH":"2022-04-08T21:31:03.749088","ECCENTRICITY":"0.00015960","FILE":"3393990","COUNTRY_CODE":"US","CENTER_NAME":"EARTH","ARG_OF_PERICENTER":"60.6242","MEAN_ELEMENT_THEORY":"SGP4","PERIOD":"95.591","TLE_LINE1":"1 47572U 21009AA  22098.89657117  .00002680  00000-0  19867-3 0  9992","MEAN_ANOMALY":"299.4907","DECAY_DATE":null,"GP_ID":"200781412","LAUNCH_DATE":"2021-02-04","TLE_LINE2":"2 47572  53.0555 314.7087 0001596  60.6242 299.4907 15.06413073 65282","REV_AT_EPOCH":"6528","CLASSIFICATION_TYPE":"U"},{"TLE_LINE1":"1 47573U 21009AB  22098.80811354  .00003185  00000-0  23261-3 0  9993","MEAN_ANOMALY":"308.0410","DECAY_DATE":null,"GP_ID":"200782162","LAUNCH_DATE":"2021-02-04","TLE_LINE2":"2 47573  53.0562 315.1033 0001766  52.0739 308.0410 15.06405611 65265","REV_AT_EPOCH":"6526","CLASSIFICATION_TYPE":"U","ELEMENT_SET_NO":"999","EPHEMERIS_TYPE":"0","REF_FRAME":"TEME","OBJECT_NAME":"STARLINK-1975","EPOCH":"2022-04-08T19:23:41.009856","ECCENTRICITY":"0.00017660","FILE":"3393990","COUNTRY_CODE":"US","ARG_OF_PERICENTER":"52.0739","CENTER_NAME":"EARTH","MEAN_ELEMENT_THEORY":"SGP4","PERIOD":"95.592","OBJECT_ID":"2021-009AB","PERIAPSIS":"545.973","MEAN_MOTION":"15.06405611","RA_OF_ASC_NODE":"315.1033","TIME_SYSTEM":"UTC","NORAD_CAT_ID":"47573","MEAN_MOTION_DOT":"0.00003185","INCLINATION":"53.0562","BSTAR":"0.00023261000000","APOAPSIS":"548.419","MEAN_MOTION_DDOT":"0.0000000000000","SITE":"AFETR","OBJECT_TYPE":"PAYLOAD","SEMIMAJOR_AXIS":"6925.331","RCS_SIZE":"LARGE"},{"OBJECT_TYPE":"PAYLOAD","SEMIMAJOR_AXIS":"6925.317","RCS_SIZE":"LARGE","BSTAR":"0.00020636000000","APOAPSIS":"548.311","MEAN_MOTION_DDOT":"0.0000000000000","SITE":"AFETR","MEAN_MOTION":"15.06410149","RA_OF_ASC_NODE":"344.7366","TIME_SYSTEM":"UTC","NORAD_CAT_ID":"47574","MEAN_MOTION_DOT":"0.00002794","INCLINATION":"53.0549","OBJECT_ID":"2021-009AC","PERIAPSIS":"546.054","EPOCH":"2022-04-08T21:21:46.004256","ECCENTRICITY":"0.00016290","COUNTRY_CODE":"US","FILE":"3393990","ARG_OF_PERICENTER":"43.9081","CENTER_NAME":"EARTH","MEAN_ELEMENT_THEORY":"SGP4","PERIOD":"95.591","ELEMENT_SET_NO":"999","EPHEMERIS_TYPE":"0","REF_FRAME":"TEME","OBJECT_NAME":"STARLINK-1976","GP_ID":"200780910","DECAY_DATE":null,"LAUNCH_DATE":"2021-02-04","TLE_LINE2":"2 47574  53.0549 344.7366 0001629  43.9081 316.2037 15.06410149 64857","REV_AT_EPOCH":"6485","CLASSIFICATION_TYPE":"U","TLE_LINE1":"1 47574U 21009AC  22098.89011579  .00002794  00000-0  20636-3 0  9992","MEAN_ANOMALY":"316.2037"},{"TLE_LINE2":"2 47575  53.0565 344.7806 0001836  59.5466 300.5704 15.06402655 64855","REV_AT_EPOCH":"6485","CLASSIFICATION_TYPE":"U","DECAY_DATE":null,"GP_ID":"200780661","LAUNCH_DATE":"2021-02-04","MEAN_ANOMALY":"300.5704","TLE_LINE1":"1 47575U 21009AD  22098.87906127 -.00000276  00000-0  37174-6 0  9995","ARG_OF_PERICENTER":"59.5466","CENTER_NAME":"EARTH","MEAN_ELEMENT_THEORY":"SGP4","PERIOD":"95.592","EPOCH":"2022-04-08T21:05:50.893728","ECCENTRICITY":"0.00018360","COUNTRY_CODE":"US","FILE":"3393990","REF_FRAME":"TEME","OBJECT_NAME":"STARLINK-1977","ELEMENT_SET_NO":"999","EPHEMERIS_TYPE":"0","NORAD_CAT_ID":"47575","MEAN_MOTION_DOT":"-0.00000276","INCLINATION":"53.0565","RA_OF_ASC_NODE":"344.7806","MEAN_MOTION":"15.06402655","TIME_SYSTEM":"UTC","PERIAPSIS":"545.934","OBJECT_ID":"2021-009AD","OBJECT_TYPE":"PAYLOAD","SEMIMAJOR_AXIS":"6925.340","RCS_SIZE":"LARGE","SITE":"AFETR","BSTAR":"0.00000037174000","MEAN_MOTION_DDOT":"0.0000000000000","APOAPSIS":"548.477"},{"BSTAR":"0.00021925000000","APOAPSIS":"548.397","MEAN_MOTION_DDOT":"0.0000000000000","SITE":"AFETR","OBJECT_TYPE":"PAYLOAD","SEMIMAJOR_AXIS":"6925.332","RCS_SIZE":"LARGE","OBJECT_ID":"2021-009AE","PERIAPSIS":"545.997","RA_OF_ASC_NODE":"304.9243","MEAN_MOTION":"15.06405465","TIME_SYSTEM":"UTC","NORAD_CAT_ID":"47576","MEAN_MOTION_DOT":"0.00002986","INCLINATION":"53.0555","ELEMENT_SET_NO":"999","EPHEMERIS_TYPE":"0","REF_FRAME":"TEME","OBJECT_NAME":"STARLINK-1978","EPOCH":"2022-04-08T20:18:05.548320","ECCENTRICITY":"0.00017330","FILE":"3393990","COUNTRY_CODE":"US","CENTER_NAME":"EARTH","ARG_OF_PERICENTER":"55.7521","MEAN_ELEMENT_THEORY":"SGP4","PERIOD":"95.592","TLE_LINE1":"1 47576U 21009AE  22098.84589755  .00002986  00000-0  21925-3 0  9990","MEAN_ANOMALY":"304.3632","GP_ID":"200781912","DECAY_DATE":null,"LAUNCH_DATE":"2021-02-04","TLE_LINE2":"2 47576  53.0555 304.9243 0001733  55.7521 304.3632 15.06405465 65411","REV_AT_EPOCH":"6541","CLASSIFICATION_TYPE":"U"},{"CLASSIFICATION_TYPE":"U","TLE_LINE2":"2 47577  53.0547 320.0454 0001686  59.8364 300.2792 15.06404155 65207","REV_AT_EPOCH":"6520","LAUNCH_DATE":"2021-02-04","DECAY_DATE":null,"GP_ID":"200781663","MEAN_ANOMALY":"300.2792","TLE_LINE1":"1 47577U 21009AF  22098.82054599  .00001811  00000-0  14042-3 0  9990","MEAN_ELEMENT_THEORY":"SGP4","PERIOD":"95.592","ARG_OF_PERICENTER":"59.8364","CENTER_NAME":"EARTH","FILE":"3393990","COUNTRY_CODE":"US","EPOCH":"2022-04-08T19:41:35.173536","ECCENTRICITY":"0.00016860","OBJECT_NAME":"STARLINK-1979","REF_FRAME":"TEME","EPHEMERIS_TYPE":"0","ELEMENT_SET_NO":"999","MEAN_MOTION_DOT":"0.00001811","INCLINATION":"53.0547","NORAD_CAT_ID":"47577","TIME_SYSTEM":"UTC","MEAN_MOTION":"15.06404155","RA_OF_ASC_NODE":"320.0454","PERIAPSIS":"546.033","OBJECT_ID":"2021-009AF","RCS_SIZE":"LARGE","OBJECT_TYPE":"PAYLOAD","SEMIMAJOR_AXIS":"6925.336","SITE":"AFETR","MEAN_MOTION_DDOT":"0.0000000000000","APOAPSIS":"548.368","BSTAR":"0.00014042000000"}];
